[{"OBJECT_NAME":"SKYSAT-C9","OBJECT_ID":"2017-068C","EPOCH":"2026-03-09T21:47:44.094336","MEAN_MOTION":15.38897151,"ECCENTRICITY":0.00098921,"INCLINATION":97.4262,"RA_OF_ASC_NODE":205.0589,"ARG_OF_PERICENTER":132.0246,"MEAN_ANOMALY":228.1843,"EPHEMERIS_TYPE":0,"CLASSIFICATION_TYPE":"U","NORAD_CAT_ID":42989,"ELEMENT_SET_NO":999,"REV_AT_EPOCH":46747,"BSTAR":0.00044631703,"MEAN_MOTION_DOT":0.00017138,"MEAN_MOTION_DDOT":0},{"OBJECT_NAME":"INNOSAT 3 (RS92S0)","OBJECT_ID":"2025-155U","EPOCH":"2026-03-09T22:04:35.098752","MEAN_MOTION":15.36713341,"ECCENTRICITY":0.00065738,"INCLINATION":97.4426,"RA_OF_ASC_NODE":38.6151,"ARG_OF_PERICENTER":146.647,"MEAN_ANOMALY":213.5189,"EPHEMERIS_TYPE":0,"CLASSIFICATION_TYPE":"U","NORAD_CAT_ID":64894,"ELEMENT_SET_NO":999,"REV_AT_EPOCH":6568,"BSTAR":0.0011717269,"MEAN_MOTION_DOT":0.00042146,"MEAN_MOTION_DDOT":0}]
